ONEWEB-0190             
1 48796U 21045AF  26130.12974736  .00000082  00000+0  18419-3 0  9992
2 48796  87.8970 266.7833 0001887  77.3948 282.7393 13.15548479239366
ONEWEB-0236             
1 48797U 21045AG  26130.07112425  .00000105  00000+0  24455-3 0  9999
2 48797  87.8971 266.8058 0001785 103.1770 256.9559 13.15548693239248
ONEWEB-0248             
1 48798U 21045AH  26130.08377615 -.00000027  00000+0 -10580-3 0  9994
2 48798  87.8981 266.7828 0001530  85.3231 274.8074 13.15551447239405
ONEWEB-0225             
1 48799U 21045AJ  26130.10595699 -.00000046  00000+0 -15560-3 0  9996
2 48799  87.8970 266.7888 0001833  80.7579 279.3758 13.15549621239411
ONEWEB-0215             
1 48800U 21045AK  26130.07587657  .00000078  00000+0  17305-3 0  9992
2 48800  87.8983 266.7745 0001682  75.2872 284.8444 13.15549323239284
ONEWEB-0216             
1 48801U 21045AL  26130.08538036  .00000054  00000+0  10843-3 0  9995
2 48801  87.8978 266.7883 0001896  98.4971 261.6374 13.15550124239293
ONEWEB-0239             
1 48802U 21045AM  26130.09011794  .00000031  00000+0  48935-4 0  9993
2 48802  87.8970 266.7972 0001419  72.6912 287.4374 13.15550280239339
ONEWEB-0249             
1 48967U 21060A   26130.20639426  .00000120  00000+0  28070-3 0  9999
2 48967  87.9100 236.3194 0001820 100.6105 259.5231 13.16596278234614
ONEWEB-0250             
1 48968U 21060B   26129.81893213 -.00000003  00000+0 -37730-4 0  9997
2 48968  87.9100 234.2773 0001162 123.7618 236.3629 13.25831312235132
ONEWEB-0252             
1 48970U 21060D   26130.00929522 -.00000009  00000+0 -58161-4 0  9993
2 48970  87.9097 236.3502 0002170  98.2905 261.8472 13.16595537234637
ONEWEB-0253             
1 48971U 21060E   26130.22618985 -.00000006  00000+0 -48520-4 0  9991
2 48971  87.9099 236.3130 0001872  99.3599 260.7743 13.16595392234599
ONEWEB-0254             
1 48972U 21060F   26130.00771159 -.00000002  00000+0 -39414-4 0  9999
2 48972  87.9099 236.3527 0001689  94.0308 266.1016 13.16596105234569
ONEWEB-0255             
1 48973U 21060G   26130.04568509 -.00000077  00000+0 -23582-3 0  9997
2 48973  87.9099 236.3531 0001811  96.8437 263.2899 13.16594866234643
ONEWEB-0256             
1 48974U 21060H   26130.22383159  .00000055  00000+0  11142-3 0  9997
2 48974  87.9093 236.3239 0002034 102.4477 257.6882 13.16595404234636
ONEWEB-0257             
1 48975U 21060J   26130.02828902 -.00000106  00000+0 -31173-3 0  9991
2 48975  87.9097 236.3477 0001965  96.7925 263.3429 13.16595194234569
ONEWEB-0258             
1 48976U 21060K   26130.02986370 -.00000072  00000+0 -22077-3 0  9991
2 48976  87.9098 236.3588 0001874 101.4444 258.6897 13.16595284234570
