[{"OBJECT_NAME":"ONEWEB-0190","OBJECT_ID":"2021-045AF","EPOCH":"2026-05-10T03:06:50.171904","MEAN_MOTION":13.15548479,"ECCENTRICITY":0.0001887,"INCLINATION":87.897,"RA_OF_ASC_NODE":266.7833,"ARG_OF_PERICENTER":77.3948,"MEAN_ANOMALY":282.7393,"EPHEMERIS_TYPE":0,"CLASSIFICATION_TYPE":"U","NORAD_CAT_ID":48796,"ELEMENT_SET_NO":999,"REV_AT_EPOCH":23936,"BSTAR":0.00018418999999999998,"MEAN_MOTION_DOT":8.2e-07,"MEAN_MOTION_DDOT":0.0},{"OBJECT_NAME":"ONEWEB-0236","OBJECT_ID":"2021-045AG","EPOCH":"2026-05-10T01:42:25.135200","MEAN_MOTION":13.15548693,"ECCENTRICITY":0.0001785,"INCLINATION":87.8971,"RA_OF_ASC_NODE":266.8058,"ARG_OF_PERICENTER":103.177,"MEAN_ANOMALY":256.9559,"EPHEMERIS_TYPE":0,"CLASSIFICATION_TYPE":"U","NORAD_CAT_ID":48797,"ELEMENT_SET_NO":999,"REV_AT_EPOCH":23924,"BSTAR":0.00024455,"MEAN_MOTION_DOT":1.05e-06,"MEAN_MOTION_DDOT":0.0},{"OBJECT_NAME":"ONEWEB-0248","OBJECT_ID":"2021-045AH","EPOCH":"2026-05-10T02:00:38.259360","MEAN_MOTION":13.15551447,"ECCENTRICITY":0.000153,"INCLINATION":87.8981,"RA_OF_ASC_NODE":266.7828,"ARG_OF_PERICENTER":85.3231,"MEAN_ANOMALY":274.8074,"EPHEMERIS_TYPE":0,"CLASSIFICATION_TYPE":"U","NORAD_CAT_ID":48798,"ELEMENT_SET_NO":999,"REV_AT_EPOCH":23940,"BSTAR":-0.00010580000000000001,"MEAN_MOTION_DOT":-2.7e-07,"MEAN_MOTION_DDOT":0.0},{"OBJECT_NAME":"ONEWEB-0225","OBJECT_ID":"2021-045AJ","EPOCH":"2026-05-10T02:32:34.683936","MEAN_MOTION":13.15549621,"ECCENTRICITY":0.0001833,"INCLINATION":87.897,"RA_OF_ASC_NODE":266.7888,"ARG_OF_PERICENTER":80.7579,"MEAN_ANOMALY":279.3758,"EPHEMERIS_TYPE":0,"CLASSIFICATION_TYPE":"U","NORAD_CAT_ID":48799,"ELEMENT_SET_NO":999,"REV_AT_EPOCH":23941,"BSTAR":-0.0001556,"MEAN_MOTION_DOT":-4.6e-07,"MEAN_MOTION_DDOT":0.0},{"OBJECT_NAME":"ONEWEB-0215","OBJECT_ID":"2021-045AK","EPOCH":"2026-05-10T01:49:15.735648","MEAN_MOTION":13.15549323,"ECCENTRICITY":0.0001682,"INCLINATION":87.8983,"RA_OF_ASC_NODE":266.7745,"ARG_OF_PERICENTER":75.2872,"MEAN_ANOMALY":284.8444,"EPHEMERIS_TYPE":0,"CLASSIFICATION_TYPE":"U","NORAD_CAT_ID":48800,"ELEMENT_SET_NO":999,"REV_AT_EPOCH":23928,"BSTAR":0.00017305,"MEAN_MOTION_DOT":7.8e-07,"MEAN_MOTION_DDOT":0.0},{"OBJECT_NAME":"ONEWEB-0216","OBJECT_ID":"2021-045AL","EPOCH":"2026-05-10T02:02:56.863104","MEAN_MOTION":13.15550124,"ECCENTRICITY":0.0001896,"INCLINATION":87.8978,"RA_OF_ASC_NODE":266.7883,"ARG_OF_PERICENTER":98.4971,"MEAN_ANOMALY":261.6374,"EPHEMERIS_TYPE":0,"CLASSIFICATION_TYPE":"U","NORAD_CAT_ID":48801,"ELEMENT_SET_NO":999,"REV_AT_EPOCH":23929,"BSTAR":0.00010843,"MEAN_MOTION_DOT":5.4e-07,"MEAN_MOTION_DDOT":0.0},{"OBJECT_NAME":"ONEWEB-0239","OBJECT_ID":"2021-045AM","EPOCH":"2026-05-10T02:09:46.190016","MEAN_MOTION":13.1555028,"ECCENTRICITY":0.0001419,"INCLINATION":87.897,"RA_OF_ASC_NODE":266.7972,"ARG_OF_PERICENTER":72.6912,"MEAN_ANOMALY":287.4374,"EPHEMERIS_TYPE":0,"CLASSIFICATION_TYPE":"U","NORAD_CAT_ID":48802,"ELEMENT_SET_NO":999,"REV_AT_EPOCH":23933,"BSTAR":4.8935000000000005e-05,"MEAN_MOTION_DOT":3.1e-07,"MEAN_MOTION_DDOT":0.0},{"OBJECT_NAME":"ONEWEB-0249","OBJECT_ID":"2021-060A","EPOCH":"2026-05-10T04:57:12.464064","MEAN_MOTION":13.16596278,"ECCENTRICITY":0.000182,"INCLINATION":87.91,"RA_OF_ASC_NODE":236.3194,"ARG_OF_PERICENTER":100.6105,"MEAN_ANOMALY":259.5231,"EPHEMERIS_TYPE":0,"CLASSIFICATION_TYPE":"U","NORAD_CAT_ID":48967,"ELEMENT_SET_NO":999,"REV_AT_EPOCH":23461,"BSTAR":0.0002807,"MEAN_MOTION_DOT":1.2e-06,"MEAN_MOTION_DDOT":0.0},{"OBJECT_NAME":"ONEWEB-0250","OBJECT_ID":"2021-060B","EPOCH":"2026-05-09T19:39:15.736032","MEAN_MOTION":13.25831312,"ECCENTRICITY":0.0001162,"INCLINATION":87.91,"RA_OF_ASC_NODE":234.2773,"ARG_OF_PERICENTER":123.7618,"MEAN_ANOMALY":236.3629,"EPHEMERIS_TYPE":0,"CLASSIFICATION_TYPE":"U","NORAD_CAT_ID":48968,"ELEMENT_SET_NO":999,"REV_AT_EPOCH":23513,"BSTAR":-3.7730000000000006e-05,"MEAN_MOTION_DOT":-3e-08,"MEAN_MOTION_DDOT":0.0},{"OBJECT_NAME":"ONEWEB-0252","OBJECT_ID":"2021-060D","EPOCH":"2026-05-10T00:13:23.107008","MEAN_MOTION":13.16595537,"ECCENTRICITY":0.000217,"INCLINATION":87.9097,"RA_OF_ASC_NODE":236.3502,"ARG_OF_PERICENTER":98.2905,"MEAN_ANOMALY":261.8472,"EPHEMERIS_TYPE":0,"CLASSIFICATION_TYPE":"U","NORAD_CAT_ID":48970,"ELEMENT_SET_NO":999,"REV_AT_EPOCH":23463,"BSTAR":-5.8161e-05,"MEAN_MOTION_DOT":-9e-08,"MEAN_MOTION_DDOT":0.0},{"OBJECT_NAME":"ONEWEB-0253","OBJECT_ID":"2021-060E","EPOCH":"2026-05-10T05:25:42.803040","MEAN_MOTION":13.16595392,"ECCENTRICITY":0.0001872,"INCLINATION":87.9099,"RA_OF_ASC_NODE":236.313,"ARG_OF_PERICENTER":99.3599,"MEAN_ANOMALY":260.7743,"EPHEMERIS_TYPE":0,"CLASSIFICATION_TYPE":"U","NORAD_CAT_ID":48971,"ELEMENT_SET_NO":999,"REV_AT_EPOCH":23459,"BSTAR":-4.852e-05,"MEAN_MOTION_DOT":-6e-08,"MEAN_MOTION_DDOT":0.0},{"OBJECT_NAME":"ONEWEB-0254","OBJECT_ID":"2021-060F","EPOCH":"2026-05-10T00:11:06.281376","MEAN_MOTION":13.16596105,"ECCENTRICITY":0.0001689,"INCLINATION":87.9099,"RA_OF_ASC_NODE":236.3527,"ARG_OF_PERICENTER":94.0308,"MEAN_ANOMALY":266.1016,"EPHEMERIS_TYPE":0,"CLASSIFICATION_TYPE":"U","NORAD_CAT_ID":48972,"ELEMENT_SET_NO":999,"REV_AT_EPOCH":23456,"BSTAR":-3.9414e-05,"MEAN_MOTION_DOT":-2e-08,"MEAN_MOTION_DDOT":0.0},{"OBJECT_NAME":"ONEWEB-0255","OBJECT_ID":"2021-060G","EPOCH":"2026-05-10T01:05:47.191776","MEAN_MOTION":13.16594866,"ECCENTRICITY":0.0001811,"INCLINATION":87.9099,"RA_OF_ASC_NODE":236.3531,"ARG_OF_PERICENTER":96.8437,"MEAN_ANOMALY":263.2899,"EPHEMERIS_TYPE":0,"CLASSIFICATION_TYPE":"U","NORAD_CAT_ID":48973,"ELEMENT_SET_NO":999,"REV_AT_EPOCH":23464,"BSTAR":-0.00023582,"MEAN_MOTION_DOT":-7.7e-07,"MEAN_MOTION_DDOT":0.0},{"OBJECT_NAME":"ONEWEB-0256","OBJECT_ID":"2021-060H","EPOCH":"2026-05-10T05:22:19.049376","MEAN_MOTION":13.16595404,"ECCENTRICITY":0.0002034,"INCLINATION":87.9093,"RA_OF_ASC_NODE":236.3239,"ARG_OF_PERICENTER":102.4477,"MEAN_ANOMALY":257.6882,"EPHEMERIS_TYPE":0,"CLASSIFICATION_TYPE":"U","NORAD_CAT_ID":48974,"ELEMENT_SET_NO":999,"REV_AT_EPOCH":23463,"BSTAR":0.00011142000000000001,"MEAN_MOTION_DOT":5.5e-07,"MEAN_MOTION_DDOT":0.0},{"OBJECT_NAME":"ONEWEB-0257","OBJECT_ID":"2021-060J","EPOCH":"2026-05-10T00:40:44.171328","MEAN_MOTION":13.16595194,"ECCENTRICITY":0.0001965,"INCLINATION":87.9097,"RA_OF_ASC_NODE":236.3477,"ARG_OF_PERICENTER":96.7925,"MEAN_ANOMALY":263.3429,"EPHEMERIS_TYPE":0,"CLASSIFICATION_TYPE":"U","NORAD_CAT_ID":48975,"ELEMENT_SET_NO":999,"REV_AT_EPOCH":23456,"BSTAR":-0.00031173,"MEAN_MOTION_DOT":-1.06e-06,"MEAN_MOTION_DDOT":0.0},{"OBJECT_NAME":"ONEWEB-0258","OBJECT_ID":"2021-060K","EPOCH":"2026-05-10T00:43:00.223680","MEAN_MOTION":13.16595284,"ECCENTRICITY":0.0001874,"INCLINATION":87.9098,"RA_OF_ASC_NODE":236.3588,"ARG_OF_PERICENTER":101.4444,"MEAN_ANOMALY":258.6897,"EPHEMERIS_TYPE":0,"CLASSIFICATION_TYPE":"U","NORAD_CAT_ID":48976,"ELEMENT_SET_NO":999,"REV_AT_EPOCH":23457,"BSTAR":-0.00022077,"MEAN_MOTION_DOT":-7.2e-07,"MEAN_MOTION_DDOT":0.0}]